GLOBALSTAR M001 [-]     
1 25162U 98008A   23310.13671652  .00000073  00000+0  13028-2 0  9996
2 25162  52.0035 247.6406 0002168  78.5145 295.9243 12.38171723170859
GLOBALSTAR M004 [-]     
1 25163U 98008B   23310.00913264 -.00000076  00000+0  15473-3 0  9992
2 25163  52.0008  51.5173 0003510  71.3799 100.0740 12.63341266187317
GLOBALSTAR M002 [-]     
1 25164U 98008C   23309.58302327 -.00000080  00000+0 -69052-4 0  9995
2 25164  52.0016 278.5211 0001298 121.4183 238.6764 11.61496783115627
GLOBALSTAR M003 [-]     
1 25165U 98008D   23309.90773612  .00000059  00000+0  15830-2 0  9998
2 25165  51.9790   0.6946 0008113 184.9041 346.5020 12.11950635161851
GLOBALSTAR M014 [-]     
1 25306U 98023A   23309.99513258 -.00000078  00000+0 -15341-5 0  9992
2 25306  51.9832 213.0967 0001498  31.2556 342.3052 11.65461684122464
GLOBALSTAR M006 [-]     
1 25307U 98023B   23309.92868250 -.00000020  00000+0  11431-2 0  9990
2 25307  51.9936 243.7143 0003779 117.9493 347.1921 11.58156561148555
GLOBALSTAR M015 [-]     
1 25308U 98023C   23309.78597747  .00000022  00000+0  21733-2 0  9992
2 25308  51.9834 315.5373 0012473 106.8095  64.4901 11.48857388126335
GLOBALSTAR M008 [-]     
1 25309U 98023D   23309.71997497 -.00000067  00000+0  22689-3 0  9994
2 25309  51.9948 107.0084 0002750  33.8515 339.5863 12.36030762164958
